{
  "norad_id": 54208,
  "name": "STARLINK-5255",
  "history": [
    {
      "epoch": "2026-03-28T19:20:07.097280Z",
      "apogee_km": 540.6693877230455,
      "perigee_km": 538.8481824786586,
      "latitude_deg": 2.6868727396217077e-06,
      "longitude_deg": 127.10282135628738,
      "height_km": 540.6642209526117,
      "semi_major_axis_km": 6917.895785100852,
      "eccentricity": 0.00013163,
      "inclination_deg": 53.2179,
      "raan_deg": 243.3532,
      "arg_perigee_deg": 90.6052,
      "mean_anomaly_deg": 269.5091,
      "mean_motion_rev_day": 15.08834963
    },
    {
      "epoch": "2026-03-29T03:17:02.651136Z",
      "apogee_km": 540.6646925720288,
      "perigee_km": 538.820385886871,
      "latitude_deg": 8.811714072525311e-06,
      "longitude_deg": 6.058207326637585,
      "height_km": 540.6350611673669,
      "semi_major_axis_km": 6917.87953922945,
      "eccentricity": 0.0001333,
      "inclination_deg": 53.2182,
      "raan_deg": 241.8665,
      "arg_perigee_deg": 89.7946,
      "mean_anomaly_deg": 270.3199,
      "mean_motion_rev_day": 15.08840278
    },
    {
      "epoch": "2026-03-30T03:07:49.398240Z",
      "apogee_km": 540.626242362222,
      "perigee_km": 538.8275977430085,
      "latitude_deg": 1.9083341129147574e-05,
      "longitude_deg": 2.922402445628054,
      "height_km": 540.5628787040428,
      "semi_major_axis_km": 6917.863920052615,
      "eccentricity": 0.00013,
      "inclination_deg": 53.2179,
      "raan_deg": 237.4048,
      "arg_perigee_deg": 86.1817,
      "mean_anomaly_deg": 273.9324,
      "mean_motion_rev_day": 15.08845388
    },
    {
      "epoch": "2026-03-30T09:29:22.157376Z",
      "apogee_km": 540.6766173718361,
      "perigee_km": 538.811694969756,
      "latitude_deg": -2.0280897296340368e-05,
      "longitude_deg": -93.91468186390574,
      "height_km": 540.5809019312204,
      "semi_major_axis_km": 6917.881156170796,
      "eccentricity": 0.00013479,
      "inclination_deg": 53.2163,
      "raan_deg": 236.2154,
      "arg_perigee_deg": 86.3804,
      "mean_anomaly_deg": 273.7342,
      "mean_motion_rev_day": 15.08839749
    },
    {
      "epoch": "2026-03-30T19:01:40.846368Z",
      "apogee_km": 540.6231304007197,
      "perigee_km": 538.8532612106246,
      "latitude_deg": 2.3824269916358213e-05,
      "longitude_deg": 120.83174729910438,
      "height_km": 540.6310377454761,
      "semi_major_axis_km": 6917.875195805672,
      "eccentricity": 0.00012792,
      "inclination_deg": 53.2165,
      "raan_deg": 234.4314,
      "arg_perigee_deg": 89.8137,
      "mean_anomaly_deg": 270.3002,
      "mean_motion_rev_day": 15.08841699
    }
  ]
}